STARLINK-36129          
1 66874U 25281AC  25352.25003472 -.00054747  00000+0 -35508-3 0  9991
2 66874  43.0007  88.3994 0001827 262.4329  77.6096 15.75071001  2312
STARLINK-36053          
1 66875U 25281AD  25352.25003472  .00065794  00000+0  42840-3 0  9991
2 66875  43.0010  88.3838 0001494 261.6880  84.1173 15.75022152  2319
STARLINK-35702          
1 66876U 25281AE  25352.25003472  .00133979  00000+0  86148-3 0  9992
2 66876  43.0007  88.3943 0002297 263.7255  78.1261 15.75038888  2318
ZQ-3 R/B                
1 66877U 25282A   25352.27305065  .01026202  76783-5  19137-3 0  9991
2 66877  56.9499  36.3088 0732014 229.6301 123.8586 14.70828040  2207
STARLINK-35866          
1 66878U 25283A   25352.25003472 -.01354820  00000+0 -79140-2 0  9992
2 66878  53.1554  46.1172 0000982  71.9598 308.6916 15.80228542  3316
STARLINK-35749          
1 66879U 25283B   25352.25003472 -.01369275  00000+0 -80461-2 0  9991
2 66879  53.1550  46.1065 0001148  69.1895 316.3513 15.80126049  3316
STARLINK-35844          
1 66880U 25283C   25352.25003472 -.01363467  00000+0 -79856-2 0  9996
2 66880  53.1554  46.1124 0000980  72.4855 310.5328 15.80187948  3319
STARLINK-35860          
1 66881U 25283D   25352.25003472 -.01375603  00000+0 -80953-2 0  9992
2 66881  53.1550  46.1019 0000989  85.3537 302.3410 15.80107528  3315
STARLINK-35912          
1 66882U 25283E   25352.25003472 -.01386474  00000+0 -81808-2 0  9991
2 66882  53.1552  46.0975 0001086  76.7404 313.2820 15.80070300  3317
STARLINK-35947          
1 66883U 25283F   25352.25003472 -.01390859  00000+0 -82308-2 0  9990
2 66883  53.1554  46.0928 0000836  85.9860 306.4619 15.80017850  3364
STARLINK-36057          
1 66884U 25283G   25352.25003472 -.01409571  00000+0 -83917-2 0  9990
2 66884  53.1551  46.0822 0000820  91.1417 306.0859 15.79924155  3315
STARLINK-35954          
1 66885U 25283H   25352.25003472 -.01400289  00000+0 -83110-2 0  9993
2 66885  53.1551  46.0871 0000931  82.3323 312.5102 15.79971347  3319
