CCSDS_OMM_VERS = 2.0
CREATION_DATE  = 
ORIGINATOR     = 

OBJECT_NAME    = STARLINK-36129
OBJECT_ID      = 2025-281AC
CENTER_NAME    = EARTH
REF_FRAME      = TEME
TIME_SYSTEM    = UTC
MEAN_ELEMENT_THEORY = SGP/SGP4

EPOCH          = 2025-12-18T06:00:02.999808
MEAN_MOTION    = 15.75071001
ECCENTRICITY   = .00018279
INCLINATION    = 43.0007
RA_OF_ASC_NODE = 88.3994
ARG_OF_PERICENTER = 262.4329
MEAN_ANOMALY   = 77.6096

EPHEMERIS_TYPE = 0
CLASSIFICATION_TYPE = U
NORAD_CAT_ID   = 66874
ELEMENT_SET_NO = 999
REV_AT_EPOCH   = 231
BSTAR          = -.35508264E-3
MEAN_MOTION_DOT = -.54747E-3
MEAN_MOTION_DDOT = 0

CCSDS_OMM_VERS = 2.0
CREATION_DATE  = 
ORIGINATOR     = 

OBJECT_NAME    = STARLINK-36053
OBJECT_ID      = 2025-281AD
CENTER_NAME    = EARTH
REF_FRAME      = TEME
TIME_SYSTEM    = UTC
MEAN_ELEMENT_THEORY = SGP/SGP4

EPOCH          = 2025-12-18T06:00:02.999808
MEAN_MOTION    = 15.75022152
ECCENTRICITY   = .00014946
INCLINATION    = 43.0010
RA_OF_ASC_NODE = 88.3838
ARG_OF_PERICENTER = 261.6880
MEAN_ANOMALY   = 84.1173

EPHEMERIS_TYPE = 0
CLASSIFICATION_TYPE = U
NORAD_CAT_ID   = 66875
ELEMENT_SET_NO = 999
REV_AT_EPOCH   = 231
BSTAR          = .42840342E-3
MEAN_MOTION_DOT = .65794E-3
MEAN_MOTION_DDOT = 0

CCSDS_OMM_VERS = 2.0
CREATION_DATE  = 
ORIGINATOR     = 

OBJECT_NAME    = STARLINK-35702
OBJECT_ID      = 2025-281AE
CENTER_NAME    = EARTH
REF_FRAME      = TEME
TIME_SYSTEM    = UTC
MEAN_ELEMENT_THEORY = SGP/SGP4

EPOCH          = 2025-12-18T06:00:02.999808
MEAN_MOTION    = 15.75038888
ECCENTRICITY   = .00022972
INCLINATION    = 43.0007
RA_OF_ASC_NODE = 88.3943
ARG_OF_PERICENTER = 263.7255
MEAN_ANOMALY   = 78.1261

EPHEMERIS_TYPE = 0
CLASSIFICATION_TYPE = U
NORAD_CAT_ID   = 66876
ELEMENT_SET_NO = 999
REV_AT_EPOCH   = 231
BSTAR          = .86147546E-3
MEAN_MOTION_DOT = .133979E-2
MEAN_MOTION_DDOT = 0

CCSDS_OMM_VERS = 2.0
CREATION_DATE  = 
ORIGINATOR     = 

OBJECT_NAME    = ZQ-3 R/B
OBJECT_ID      = 2025-282A
CENTER_NAME    = EARTH
REF_FRAME      = TEME
TIME_SYSTEM    = UTC
MEAN_ELEMENT_THEORY = SGP/SGP4

EPOCH          = 2025-12-18T06:33:11.576160
MEAN_MOTION    = 14.70828040
ECCENTRICITY   = .07320142
INCLINATION    = 56.9499
RA_OF_ASC_NODE = 36.3088
ARG_OF_PERICENTER = 229.6301
MEAN_ANOMALY   = 123.8586

EPHEMERIS_TYPE = 0
CLASSIFICATION_TYPE = U
NORAD_CAT_ID   = 66877
ELEMENT_SET_NO = 999
REV_AT_EPOCH   = 220
BSTAR          = .19137253E-3
MEAN_MOTION_DOT = .1026202E-1
MEAN_MOTION_DDOT = .767828E-5

CCSDS_OMM_VERS = 2.0
CREATION_DATE  = 
ORIGINATOR     = 

OBJECT_NAME    = STARLINK-35866
OBJECT_ID      = 2025-283A
CENTER_NAME    = EARTH
REF_FRAME      = TEME
TIME_SYSTEM    = UTC
MEAN_ELEMENT_THEORY = SGP/SGP4

EPOCH          = 2025-12-18T06:00:02.999808
MEAN_MOTION    = 15.80228542
ECCENTRICITY   = .00009827
INCLINATION    = 53.1554
RA_OF_ASC_NODE = 46.1172
ARG_OF_PERICENTER = 71.9598
MEAN_ANOMALY   = 308.6916

EPHEMERIS_TYPE = 0
CLASSIFICATION_TYPE = U
NORAD_CAT_ID   = 66878
ELEMENT_SET_NO = 999
REV_AT_EPOCH   = 331
BSTAR          = -.79139781E-2
MEAN_MOTION_DOT = -.135482E-1
MEAN_MOTION_DDOT = 0

CCSDS_OMM_VERS = 2.0
CREATION_DATE  = 
ORIGINATOR     = 

OBJECT_NAME    = STARLINK-35749
OBJECT_ID      = 2025-283B
CENTER_NAME    = EARTH
REF_FRAME      = TEME
TIME_SYSTEM    = UTC
MEAN_ELEMENT_THEORY = SGP/SGP4

EPOCH          = 2025-12-18T06:00:02.999808
MEAN_MOTION    = 15.80126049
ECCENTRICITY   = .00011487
INCLINATION    = 53.1550
RA_OF_ASC_NODE = 46.1065
ARG_OF_PERICENTER = 69.1895
MEAN_ANOMALY   = 316.3513

EPHEMERIS_TYPE = 0
CLASSIFICATION_TYPE = U
NORAD_CAT_ID   = 66879
ELEMENT_SET_NO = 999
REV_AT_EPOCH   = 331
BSTAR          = -.80460642E-2
MEAN_MOTION_DOT = -.1369275E-1
MEAN_MOTION_DDOT = 0

CCSDS_OMM_VERS = 2.0
CREATION_DATE  = 
ORIGINATOR     = 

OBJECT_NAME    = STARLINK-35844
OBJECT_ID      = 2025-283C
CENTER_NAME    = EARTH
REF_FRAME      = TEME
TIME_SYSTEM    = UTC
MEAN_ELEMENT_THEORY = SGP/SGP4

EPOCH          = 2025-12-18T06:00:02.999808
MEAN_MOTION    = 15.80187948
ECCENTRICITY   = .00009804
INCLINATION    = 53.1554
RA_OF_ASC_NODE = 46.1124
ARG_OF_PERICENTER = 72.4855
MEAN_ANOMALY   = 310.5328

EPHEMERIS_TYPE = 0
CLASSIFICATION_TYPE = U
NORAD_CAT_ID   = 66880
ELEMENT_SET_NO = 999
REV_AT_EPOCH   = 331
BSTAR          = -.79855558E-2
MEAN_MOTION_DOT = -.1363467E-1
MEAN_MOTION_DDOT = 0

CCSDS_OMM_VERS = 2.0
CREATION_DATE  = 
ORIGINATOR     = 

OBJECT_NAME    = STARLINK-35860
OBJECT_ID      = 2025-283D
CENTER_NAME    = EARTH
REF_FRAME      = TEME
TIME_SYSTEM    = UTC
MEAN_ELEMENT_THEORY = SGP/SGP4

EPOCH          = 2025-12-18T06:00:02.999808
MEAN_MOTION    = 15.80107528
ECCENTRICITY   = .00009897
INCLINATION    = 53.1550
RA_OF_ASC_NODE = 46.1019
ARG_OF_PERICENTER = 85.3537
MEAN_ANOMALY   = 302.3410

EPHEMERIS_TYPE = 0
CLASSIFICATION_TYPE = U
NORAD_CAT_ID   = 66881
ELEMENT_SET_NO = 999
REV_AT_EPOCH   = 331
BSTAR          = -.8095298E-2
MEAN_MOTION_DOT = -.1375603E-1
MEAN_MOTION_DDOT = 0

CCSDS_OMM_VERS = 2.0
CREATION_DATE  = 
ORIGINATOR     = 

OBJECT_NAME    = STARLINK-35912
OBJECT_ID      = 2025-283E
CENTER_NAME    = EARTH
REF_FRAME      = TEME
TIME_SYSTEM    = UTC
MEAN_ELEMENT_THEORY = SGP/SGP4

EPOCH          = 2025-12-18T06:00:02.999808
MEAN_MOTION    = 15.80070300
ECCENTRICITY   = .00010865
INCLINATION    = 53.1552
RA_OF_ASC_NODE = 46.0975
ARG_OF_PERICENTER = 76.7404
MEAN_ANOMALY   = 313.2820

EPHEMERIS_TYPE = 0
CLASSIFICATION_TYPE = U
NORAD_CAT_ID   = 66882
ELEMENT_SET_NO = 999
REV_AT_EPOCH   = 331
BSTAR          = -.81808275E-2
MEAN_MOTION_DOT = -.1386474E-1
MEAN_MOTION_DDOT = 0

CCSDS_OMM_VERS = 2.0
CREATION_DATE  = 
ORIGINATOR     = 

OBJECT_NAME    = STARLINK-35947
OBJECT_ID      = 2025-283F
CENTER_NAME    = EARTH
REF_FRAME      = TEME
TIME_SYSTEM    = UTC
MEAN_ELEMENT_THEORY = SGP/SGP4

EPOCH          = 2025-12-18T06:00:02.999808
MEAN_MOTION    = 15.80017850
ECCENTRICITY   = .00008364
INCLINATION    = 53.1554
RA_OF_ASC_NODE = 46.0928
ARG_OF_PERICENTER = 85.9860
MEAN_ANOMALY   = 306.4619

EPHEMERIS_TYPE = 0
CLASSIFICATION_TYPE = U
NORAD_CAT_ID   = 66883
ELEMENT_SET_NO = 999
REV_AT_EPOCH   = 336
BSTAR          = -.82307702E-2
MEAN_MOTION_DOT = -.1390859E-1
MEAN_MOTION_DDOT = 0

CCSDS_OMM_VERS = 2.0
CREATION_DATE  = 
ORIGINATOR     = 

OBJECT_NAME    = STARLINK-36057
OBJECT_ID      = 2025-283G
CENTER_NAME    = EARTH
REF_FRAME      = TEME
TIME_SYSTEM    = UTC
MEAN_ELEMENT_THEORY = SGP/SGP4

EPOCH          = 2025-12-18T06:00:02.999808
MEAN_MOTION    = 15.79924155
ECCENTRICITY   = .00008201
INCLINATION    = 53.1551
RA_OF_ASC_NODE = 46.0822
ARG_OF_PERICENTER = 91.1417
MEAN_ANOMALY   = 306.0859

EPHEMERIS_TYPE = 0
CLASSIFICATION_TYPE = U
NORAD_CAT_ID   = 66884
ELEMENT_SET_NO = 999
REV_AT_EPOCH   = 331
BSTAR          = -.83916974E-2
MEAN_MOTION_DOT = -.1409571E-1
MEAN_MOTION_DDOT = 0

CCSDS_OMM_VERS = 2.0
CREATION_DATE  = 
ORIGINATOR     = 

OBJECT_NAME    = STARLINK-35954
OBJECT_ID      = 2025-283H
CENTER_NAME    = EARTH
REF_FRAME      = TEME
TIME_SYSTEM    = UTC
MEAN_ELEMENT_THEORY = SGP/SGP4

EPOCH          = 2025-12-18T06:00:02.999808
MEAN_MOTION    = 15.79971347
ECCENTRICITY   = .00009319
INCLINATION    = 53.1551
RA_OF_ASC_NODE = 46.0871
ARG_OF_PERICENTER = 82.3323
MEAN_ANOMALY   = 312.5102

EPHEMERIS_TYPE = 0
CLASSIFICATION_TYPE = U
NORAD_CAT_ID   = 66885
ELEMENT_SET_NO = 999
REV_AT_EPOCH   = 331
BSTAR          = -.83109899E-2
MEAN_MOTION_DOT = -.1400289E-1
MEAN_MOTION_DDOT = 0

